{"fetched_at":"2026-07-05T22:07:10.715Z","source":"https://celestrak.org/NORAD/elements/gp.php?GROUP=stations&FORMAT=JSON","constellation":"crewed-vehicles","records":[{"OBJECT_NAME":"SOYUZ-MS 28","OBJECT_ID":"2025-275A","EPOCH":"2026-07-05T02:54:29.072448","CLASSIFICATION_TYPE":"U","MEAN_MOTION":15.48901138,"ECCENTRICITY":0.00067403,"INCLINATION":51.6302,"RA_OF_ASC_NODE":211.3234,"ARG_OF_PERICENTER":257.5366,"MEAN_ANOMALY":102.4869,"EPHEMERIS_TYPE":0,"NORAD_CAT_ID":66664,"ELEMENT_SET_NO":999,"REV_AT_EPOCH":64465,"BSTAR":0.00018660962,"MEAN_MOTION_DOT":0.00009813,"MEAN_MOTION_DDOT":0},{"OBJECT_NAME":"CREW DRAGON 12","OBJECT_ID":"2026-031A","EPOCH":"2026-07-05T02:54:29.072448","CLASSIFICATION_TYPE":"U","MEAN_MOTION":15.48901138,"ECCENTRICITY":0.00067403,"INCLINATION":51.6302,"RA_OF_ASC_NODE":211.3234,"ARG_OF_PERICENTER":257.5366,"MEAN_ANOMALY":102.4869,"EPHEMERIS_TYPE":0,"NORAD_CAT_ID":67796,"ELEMENT_SET_NO":999,"REV_AT_EPOCH":62708,"BSTAR":0.00018660962,"MEAN_MOTION_DOT":0.00009813,"MEAN_MOTION_DDOT":0},{"OBJECT_NAME":"SHENZHOU-23 (SZ-23)","OBJECT_ID":"2026-113A","EPOCH":"2026-07-05T05:10:03.903744","CLASSIFICATION_TYPE":"U","MEAN_MOTION":15.57977003,"ECCENTRICITY":0.00028885,"INCLINATION":41.4675,"RA_OF_ASC_NODE":212.3196,"ARG_OF_PERICENTER":272.5684,"MEAN_ANOMALY":87.4823,"EPHEMERIS_TYPE":0,"NORAD_CAT_ID":69180,"ELEMENT_SET_NO":999,"REV_AT_EPOCH":29597,"BSTAR":0.00022739435,"MEAN_MOTION_DOT":0.00017226,"MEAN_MOTION_DDOT":0}]}
