SOYUZ-MS 28             
1 66664U 25275A   26186.12116982  .00009813  00000+0  18661-3 0  9997
2 66664  51.6302 211.3234 0006740 257.5366 102.4869 15.48901138644659
CREW DRAGON 12          
1 67796U 26031A   26186.12116982  .00009813  00000+0  18661-3 0  9995
2 67796  51.6302 211.3234 0006740 257.5366 102.4869 15.48901138627084
SHENZHOU-23 (SZ-23)     
1 69180U 26113A   26186.21532296  .00017226  00000+0  22739-3 0  9993
2 69180  41.4675 212.3196 0002888 272.5684  87.4823 15.57977003295975
